NORAD_CAT_ID,OBJECT_NAME,OBJECT_TYPE,EPOCH,MEAN_MOTION,ECCENTRICITY,INCLINATION,RA_OF_ASC_NODE,ARG_OF_PERICENTER,MEAN_ANOMALY,BSTAR,MEAN_MOTION_DOT,MEAN_MOTION_DDOT,TLE_LINE0,TLE_LINE1,TLE_LINE2,SEMIMAJOR_AXIS,PERIOD,APOGEE,PERIGEE,DECAYED
53026.0,STARLINK-4119,PAYLOAD,2023-07-25 01:05:38,15.08849256,0.0001574,53.2154,67.6386,113.0636,247.0522,-7.8927e-05,-1.544e-05,0.0,0 STARLINK-4119,1 53026U 22076AS  23206.04558774 -.00001544  00000-0 -78927-4 0  9999,2 53026  53.2154  67.6386 0001574 113.0636 247.0522 15.08849256 58262,6917.852,95.437,540.806,538.628,0.0
53026.0,STARLINK-4119,PAYLOAD,2023-07-26 00:56:26,15.08838747,0.0001857,53.2162,63.1787,129.473,230.6427,3.239e-05,2.27e-06,0.0,0 STARLINK-4119,1 53026U 22076AS  23207.03919454  .00000227  00000-0  32390-4 0  9994,2 53026  53.2162  63.1787 0001857 129.4730 230.6427 15.08838747 58419,6917.884,95.438,541.034,538.465,0.0
53026.0,STARLINK-4119,PAYLOAD,2023-07-27 00:47:12,15.08847525,0.0001114,53.2178,58.7205,109.1053,251.006,0.00018626,2.678e-05,0.0,0 STARLINK-4119,1 53026U 22076AS  23208.03278525  .00002678  00000-0  18626-3 0  9999,2 53026  53.2178  58.7205 0001114 109.1053 251.0060 15.08847525 59033,6917.857,95.437,540.493,538.952,0.0
53026.0,STARLINK-4119,PAYLOAD,2023-07-27 13:30:18,15.08827533,9.64e-05,53.2172,56.3415,105.4473,254.6626,-7.4755e-05,-1.477e-05,0.0,0 STARLINK-4119,1 53026U 22076AS  23208.56271535 -.00001477  00000-0 -74755-4 0  9995,2 53026  53.2172  56.3415 0000964 105.4473 254.6626 15.08827533 58641,6917.918,95.438,540.45,539.117,0.0
53026.0,STARLINK-4119,PAYLOAD,2023-07-27 16:41:04,15.0882838,9.14e-05,53.2164,55.7477,104.4653,255.6441,-0.00010456,-1.951e-05,0.0,0 STARLINK-4119,1 53026U 22076AS  23208.69519606 -.00001951  00000-0 -10456-3 0  9997,2 53026  53.2164  55.7477 0000914 104.4653 255.6441 15.08828380 59139,6917.916,95.438,540.413,539.149,0.0
53026.0,STARLINK-4119,PAYLOAD,2023-07-27 21:27:14,15.08831361,9.39e-05,53.2167,54.856,96.8348,263.2751,-5.8289e-05,-1.215e-05,0.0,0 STARLINK-4119,1 53026U 22076AS  23208.89391589 -.00001215  00000-0 -58289-4 0  9997,2 53026  53.2167  54.8560 0000939  96.8348 263.2751 15.08831361 58699,6917.907,95.438,540.421,539.122,0.0
53026.0,STARLINK-4119,PAYLOAD,2023-07-28 02:13:23,15.08834784,9.51e-05,53.2161,53.9634,92.5077,267.6024,-1.6197e-05,-5.45e-06,0.0,0 STARLINK-4119,1 53026U 22076AS  23209.09263486 -.00000545  00000-0 -16197-4 0  9991,2 53026  53.2161  53.9634 0000951  92.5077 267.6024 15.08834784 59190,6917.896,95.438,540.419,539.103,0.0
53026.0,STARLINK-4119,PAYLOAD,2023-07-28 13:21:06,15.08833487,9.31e-05,53.2174,51.8821,84.0136,276.0963,-3.4575e-05,-8.38e-06,0.0,0 STARLINK-4119,1 53026U 22076AS  23209.55631961 -.00000838  00000-0 -34575-4 0  9994,2 53026  53.2174  51.8821 0000931  84.0136 276.0963 15.08833487 58799,6917.9,95.438,540.409,539.121,0.0
53026.0,STARLINK-4119,PAYLOAD,2023-07-29 19:33:25,15.0884825,9.71e-05,53.2164,46.232,98.6773,261.4329,0.00029766,4.454e-05,0.0,0 STARLINK-4119,1 53026U 22076AS  23210.81487454  .00004454  00000-0  29766-3 0  9992,2 53026  53.2164  46.2320 0000971  98.6773 261.4329 15.08848250 59454,6917.855,95.437,540.392,539.048,0.0
53026.0,STARLINK-4119,PAYLOAD,2023-07-30 19:24:12,15.08843742,9.21e-05,53.2166,41.7714,84.7348,275.3749,9.8637e-05,1.283e-05,0.0,0 STARLINK-4119,1 53026U 22076AS  23211.80847634  .00001283  00000-0  98637-4 0  9993,2 53026  53.2166  41.7714 0000921  84.7348 275.3749 15.08843742 59600,6917.869,95.437,540.371,539.097,0.0
53026.0,STARLINK-4119,PAYLOAD,2023-08-01 19:05:46,15.08841217,0.0001108,53.2187,32.8516,95.9638,264.1481,0.00012713,1.736e-05,0.0,0 STARLINK-4119,1 53026U 22076AS  23213.79567828  .00001736  00000-0  12713-3 0  9990,2 53026  53.2187  32.8516 0001108  95.9638 264.1481 15.08841217 59905,6917.877,95.437,540.508,538.975,0.0
53026.0,STARLINK-4119,PAYLOAD,2023-08-03 10:50:24,15.08844628,9.81e-05,53.2177,25.4169,92.3935,267.717,0.00017972,2.574e-05,0.0,0 STARLINK-4119,1 53026U 22076AS  23215.45167640  .00002574  00000-0  17972-3 0  9996,2 53026  53.2177  25.4169 0000981  92.3935 267.7170 15.08844628 60157,6917.866,95.437,540.41,539.053,0.0
53026.0,STARLINK-4119,PAYLOAD,2023-08-04 10:41:12,15.08833517,0.0001025,53.2159,20.9557,65.632,294.4779,1.9712e-05,2.6e-07,0.0,0 STARLINK-4119,1 53026U 22076AS  23216.44528494  .00000026  00000-0  19712-4 0  9999,2 53026  53.2159  20.9557 0001025  65.6320 294.4779 15.08833517 60303,6917.9,95.438,540.474,539.056,0.0
53026.0,STARLINK-4119,PAYLOAD,2023-08-05 10:31:59,15.08845643,0.0001086,53.2176,16.4948,80.2566,279.8549,0.00023023,3.379e-05,0.0,0 STARLINK-4119,1 53026U 22076AS  23217.43888140  .00003379  00000-0  23023-3 0  9999,2 53026  53.2176  16.4948 0001086  80.2566 279.8549 15.08845643 60459,6917.863,95.437,540.479,538.977,0.0
53026.0,STARLINK-4119,PAYLOAD,2023-08-05 16:53:31,15.08860338,0.0001054,53.2173,15.3064,70.376,289.7346,0.00057098,8.816e-05,0.0,0 STARLINK-4119,1 53026U 22076AS  23217.70383616  .00008816  00000-0  57098-3 0  9997,2 53026  53.2173  15.3064 0001054  70.3760 289.7346 15.08860338 60491,6917.818,95.436,540.412,538.954,0.0
53026.0,STARLINK-4119,PAYLOAD,2023-08-06 10:22:46,15.08836521,0.0001092,53.2179,12.0345,106.5456,253.5656,-4.2921e-06,-3.56e-06,0.0,0 STARLINK-4119,1 53026U 22076AS  23218.43248483 -.00000356  00000-0 -42921-5 0  9994,2 53026  53.2179  12.0345 0001092 106.5456 253.5656 15.08836521 60602,6917.891,95.438,540.511,539.001,0.0
53026.0,STARLINK-4119,PAYLOAD,2023-08-06 16:44:19,15.0882522,8.34e-05,53.2176,10.8444,88.2412,271.8676,-0.00019605,-3.405e-05,0.0,0 STARLINK-4119,1 53026U 22076AS  23218.69745101 -.00003405  00000-0 -19605-3 0  9990,2 53026  53.2176  10.8444 0000834  88.2412 271.8676 15.08825220 60649,6917.926,95.438,540.368,539.214,0.0
53026.0,STARLINK-4119,PAYLOAD,2023-08-07 10:13:34,15.08833435,6.57e-05,53.2175,7.5747,83.5948,276.5119,1.3153e-05,-7.8e-07,0.0,0 STARLINK-4119,1 53026U 22076AS  23219.42609475 -.00000078  00000-0  13153-4 0  9990,2 53026  53.2175   7.5747 0000657  83.5948 276.5119 15.08833435 60755,6917.9,95.438,540.22,539.311,0.0
53026.0,STARLINK-4119,PAYLOAD,2023-08-07 16:35:07,15.08843276,8.91e-05,53.218,6.3861,88.7901,271.3194,0.00052029,8.003e-05,0.0,0 STARLINK-4119,1 53026U 22076AS  23219.69105459  .00008003  00000-0  52029-3 0  9991,2 53026  53.2180   6.3861 0000891  88.7901 271.3194 15.08843276 60795,6917.87,95.437,540.352,539.119,0.0
53026.0,STARLINK-4119,PAYLOAD,2023-08-08 19:36:39,15.08877208,9.45e-05,53.2177,1.331,97.5311,262.5789,0.0010238,0.0001606,0.0,0 STARLINK-4119,1 53026U 22076AS  23220.81712283  .00016060  00000-0  10238-2 0  9993,2 53026  53.2177   1.3310 0000945  97.5311 262.5789 15.08877208 60961,6917.767,95.435,540.285,538.978,0.0
53026.0,STARLINK-4119,PAYLOAD,2023-08-09 09:55:07,15.08839031,5.51e-05,53.219,358.6558,110.2804,249.8248,-0.00023933,-4.094e-05,0.0,0 STARLINK-4119,1 53026U 22076AS  23221.41328632 -.00004094  00000-0 -23933-3 0  9994,2 53026  53.2190 358.6558 0000551 110.2804 249.8248 15.08839031 61052,6917.883,95.438,540.13,539.367,0.0
53026.0,STARLINK-4119,PAYLOAD,2023-08-09 16:16:40,15.08844097,7.61e-05,53.2181,357.466,114.9404,245.1668,0.00016559,2.349e-05,0.0,0 STARLINK-4119,1 53026U 22076AS  23221.67824577  .00002349  00000-0  16559-3 0  9996,2 53026  53.2181 357.4660 0000761 114.9404 245.1668 15.08844097 61090,6917.868,95.437,540.259,539.206,0.0
53026.0,STARLINK-4119,PAYLOAD,2023-08-10 09:45:55,15.08838719,6.55e-05,53.2179,354.1952,113.2666,246.8395,0.00033332,5.021e-05,0.0,0 STARLINK-4119,1 53026U 22076AS  23222.40688974  .00005021  00000-0  33332-3 0  9995,2 53026  53.2179 354.1952 0000655 113.2666 246.8395 15.08838719 61201,6917.884,95.438,540.202,539.296,0.0
53026.0,STARLINK-4119,PAYLOAD,2023-08-11 17:33:37,15.08851267,6.83e-05,53.2161,348.2467,100.3504,259.7565,0.00036779,5.572e-05,0.0,0 STARLINK-4119,1 53026U 22076AS  23223.73168609  .00005572  00000-0  36779-3 0  9999,2 53026  53.2161 348.2467 0000683 100.3504 259.7565 15.08851267 61403,6917.846,95.437,540.183,539.238,0.0
53026.0,STARLINK-4119,PAYLOAD,2023-08-12 07:52:06,15.08843881,8.54e-05,53.2148,345.5697,96.6041,263.5049,0.00017054,2.428e-05,0.0,0 STARLINK-4119,1 53026U 22076AS  23224.32784788  .00002428  00000-0  17054-3 0  9999,2 53026  53.2148 345.5697 0000854  96.6041 263.5049 15.08843881 61498,6917.869,95.437,540.324,539.143,0.0
53026.0,STARLINK-4119,PAYLOAD,2023-08-13 12:29:02,15.08838296,8.97e-05,53.2172,340.2188,81.1255,278.9839,5.0166e-06,-2.08e-06,0.0,0 STARLINK-4119,1 53026U 22076AS  23225.52017032 -.00000208  00000-0  50166-5 0  9991,2 53026  53.2172 340.2188 0000897  81.1255 278.9839 15.08838296 61676,6917.886,95.438,540.371,539.13,0.0
53026.0,STARLINK-4119,PAYLOAD,2023-08-14 18:41:21,15.08852115,0.0001144,53.2171,334.5679,98.1194,261.9928,-2.2992e-05,-6.54e-06,0.0,0 STARLINK-4119,1 53026U 22076AS  23226.77872446 -.00000654  00000-0 -22992-4 0  9998,2 53026  53.2171 334.5679 0001144  98.1194 261.9928 15.08852115 61860,6917.843,95.437,540.5,538.917,0.0
53026.0,STARLINK-4119,PAYLOAD,2023-08-15 10:35:13,15.08847389,0.0001392,53.2176,331.5926,102.8659,257.2489,-5.2744e-05,-1.127e-05,0.0,0 STARLINK-4119,1 53026U 22076AS  23227.44112916 -.00001127  00000-0 -52744-4 0  9996,2 53026  53.2176 331.5926 0001392 102.8659 257.2489 15.08847389 61969,6917.858,95.437,540.686,538.76,0.0
53026.0,STARLINK-4119,PAYLOAD,2023-08-16 10:26:00,15.08837737,0.0001124,53.2163,327.1329,117.6588,242.4518,0.00012243,1.661e-05,0.0,0 STARLINK-4119,1 53026U 22076AS  23228.43473266  .00001661  00000-0  12243-3 0  9994,2 53026  53.2163 327.1329 0001124 117.6588 242.4518 15.08837737 62114,6917.887,95.438,540.53,538.975,0.0
53026.0,STARLINK-4119,PAYLOAD,2023-08-17 22:59:52,15.08852866,0.0001168,53.2192,320.2998,92.2898,267.8228,-1.8134e-05,-5.77e-06,0.0,0 STARLINK-4119,1 53026U 22076AS  23229.95825111 -.00000577  00000-0 -18134-4 0  9995,2 53026  53.2192 320.2998 0001168  92.2898 267.8228 15.08852866 62346,6917.841,95.437,540.514,538.898,0.0
